OBJECT_NAME,OBJECT_ID,EPOCH,MEAN_MOTION,ECCENTRICITY,INCLINATION,RA_OF_ASC_NODE,ARG_OF_PERICENTER,MEAN_ANOMALY,EPHEMERIS_TYPE,CLASSIFICATION_TYPE,NORAD_CAT_ID,ELEMENT_SET_NO,REV_AT_EPOCH,BSTAR,MEAN_MOTION_DOT,MEAN_MOTION_DDOT
SPACEMOBILE-006,2025-309A,2026-07-18T08:52:28.491744,15.18663329,.00097856,52.9937,188.7910,226.0321,133.9866,0,U,67232,999,3133,.81418095E-4,.1388E-4,0
SPACEMOBILE-008,2026-139A,2026-07-18T18:52:28.019424,15.12805085,.0005195,52.9950,119.1028,64.9472,295.2057,0,U,69589,999,476,.36628E-4,.349E-5,0
SPACEMOBILE-009,2026-139B,2026-07-18T18:55:39.423072,15.12698470,.0005443,52.9941,119.1107,61.2523,298.9014,0,U,69590,999,476,.35561E-4,.328E-5,0
SPACEMOBILE-010,2026-139C,2026-07-18T19:00:42.062400,15.12537049,.0005439,52.9947,119.1356,53.7113,306.4379,0,U,69591,999,477,.76987E-4,.1057E-4,0
