SPACEMOBILE-006         
1 67232U 25309A   26199.36977421  .00001388  00000+0  81418-4 0  9990
2 67232  52.9937 188.7910 0009785 226.0321 133.9866 15.18663329 31336
SPACEMOBILE-008         
1 69589U 26139A   26199.78643541  .00000349  00000+0  36628-4 0  9997
2 69589  52.9950 119.1028 0005195  64.9472 295.2057 15.12805085  4765
SPACEMOBILE-009         
1 69590U 26139B   26199.78865073  .00000328  00000+0  35561-4 0  9997
2 69590  52.9941 119.1107 0005443  61.2523 298.9014 15.12698470  4769
SPACEMOBILE-010         
1 69591U 26139C   26199.79215350  .00001057  00000+0  76987-4 0  9993
2 69591  52.9947 119.1356 0005439  53.7113 306.4379 15.12537049  4772
